OBJECT_NAME,OBJECT_ID,EPOCH,MEAN_MOTION,ECCENTRICITY,INCLINATION,RA_OF_ASC_NODE,ARG_OF_PERICENTER,MEAN_ANOMALY,EPHEMERIS_TYPE,CLASSIFICATION_TYPE,NORAD_CAT_ID,ELEMENT_SET_NO,REV_AT_EPOCH,BSTAR,MEAN_MOTION_DOT,MEAN_MOTION_DDOT
STARLINK-2455,2021-027AB,2026-03-01T11:55:22.675872,15.06420753,.0001194,53.0547,188.3882,89.8509,270.2617,0,U,48117,999,27146,.19934E-3,.2691E-4,0
STARLINK-2459,2021-027AD,2026-03-01T12:05:59.392896,15.06408624,.0001521,53.0566,188.3548,101.5139,258.6021,0,U,48119,999,27145,.44235E-4,.378E-5,0
STARLINK-2460,2021-027AE,2026-03-01T09:18:08.075808,15.30183296,.000125,53.1607,206.3719,73.0355,287.0783,0,U,48120,999,27121,-.30485E-3,-.9372E-4,0
STARLINK-2462,2021-027AF,2026-03-01T09:33:58.741056,15.30205809,.0001039,53.1615,193.4406,95.2675,264.8444,0,U,48121,999,27138,.13201E-3,.3553E-4,0
STARLINK-2464,2021-027AH,2026-03-01T11:46:06.868128,15.06408297,.0001358,53.0563,188.4271,91.6129,268.5016,0,U,48123,999,27146,.14642E-3,.1901E-4,0
STARLINK-2465,2021-027AJ,2026-03-01T09:47:38.786784,15.30188070,.000123,53.1593,193.4189,86.3674,273.7468,0,U,48124,999,27138,-.27911E-4,-.1185E-4,0
STARLINK-2466,2021-027AK,2026-03-01T10:20:59.464320,15.30190531,.0001357,53.1604,203.6495,96.8572,263.2583,0,U,48125,999,27124,.64496E-4,.1551E-4,0
STARLINK-2467,2021-027AL,2026-03-01T09:22:48.881856,15.06393474,.0001217,53.0559,188.8737,80.9840,279.1286,0,U,48126,999,27145,.18099E-3,.2415E-4,0
STARLINK-2468,2021-027AM,2026-03-01T09:53:42.022752,15.30211472,.000123,53.1621,203.8508,69.0819,291.0314,0,U,48127,999,27124,.73008E-4,.1804E-4,0
STARLINK-2469,2021-027AN,2026-03-01T12:00:02.998944,15.14024501,.0001746,53.0832,138.3602,56.7846,33.5097,0,U,48128,999,582,.32423E-2,.5979E-3,0
STARLINK-2471,2021-027AP,2026-03-01T10:07:24.077280,15.30194411,.0001162,53.1601,203.9722,80.2313,279.8819,0,U,48129,999,27124,.34776E-4,.671E-5,0
STARLINK-2472,2021-027AQ,2026-03-01T10:21:55.842912,15.30200057,.000136,53.1583,206.5494,92.0784,268.0372,0,U,48130,999,27121,.4171E-3,.12014E-3,0
STARLINK-2473,2021-027AR,2026-03-01T12:23:17.053440,15.06389464,.0001449,53.0565,188.3115,83.4326,276.6828,0,U,48131,999,27146,.77425E-4,.872E-5,0
STARLINK-2474,2021-027AS,2026-03-01T10:29:25.198080,15.30202915,.0001434,53.1591,206.1266,87.4839,272.6325,0,U,48132,999,27120,.48515E-3,.14038E-3,0
STARLINK-2475,2021-027AT,2026-03-01T09:11:13.203744,15.30187468,.0001053,53.1602,203.9103,75.5635,284.5482,0,U,48133,999,27124,.29999E-4,.529E-5,0
STARLINK-2476,2021-027AU,2026-03-01T10:16:26.196672,15.30192376,.0001359,53.1613,203.6449,97.2337,262.8818,0,U,48134,999,27124,.39446E-4,.809E-5,0
STARLINK-2478,2021-027AV,2026-03-01T10:21:36.922176,15.29356433,.0001521,53.1587,206.2221,102.2139,257.9032,0,U,48135,999,27121,.42443E-3,.11911E-3,0
STARLINK-2479,2021-027AW,2026-03-01T09:44:36.664224,15.30209513,.0001423,53.1599,203.9536,95.6193,264.4970,0,U,48136,999,27124,.33071E-3,.9451E-4,0
STARLINK-2480,2021-027AX,2026-03-01T07:52:34.968000,15.06396562,.0001518,53.0567,189.1262,95.0836,265.0326,0,U,48137,999,27143,.25987E-3,.3591E-4,0
STARLINK-2481,2021-027AY,2026-03-01T10:18:05.630112,15.29356998,.0001242,53.1554,206.1583,88.4885,271.6258,0,U,48138,999,27121,.37544E-4,.728E-5,0
STARLINK-2482,2021-027AZ,2026-03-01T08:19:07.381344,15.06399217,.0001716,53.0549,189.0718,95.9035,264.2149,0,U,48139,999,27144,.21773E-3,.2963E-4,0
STARLINK-2483,2021-027BA,2026-03-01T10:24:06.459840,15.30193078,.0001193,53.1591,204.0032,83.4265,276.6872,0,U,48140,999,27124,.14869E-4,.81E-6,0
STARLINK-2485,2021-027BC,2026-03-01T08:13:46.170336,15.06506139,.0002028,53.0559,189.0873,79.7067,280.4150,0,U,48142,999,27144,-.14892E-2,-.22458E-3,0
STARLINK-2486,2021-027BD,2026-03-01T11:37:20.064000,15.30198433,.0001448,53.1613,139.1498,89.6356,270.4810,0,U,48143,999,27215,.10748E-3,.2825E-4,0
STARLINK-2487,2021-027BE,2026-03-01T08:24:25.987392,15.06401586,.0001183,53.0569,189.0557,87.8329,272.2795,0,U,48144,999,27143,.18507E-3,.2476E-4,0
STARLINK-2488,2021-027BF,2026-03-01T12:00:02.998944,15.87273129,.0001637,53.0417,149.8031,49.7005,53.6591,0,U,48145,999,595,.12316E-2,.342139E-2,0
STARLINK-2491,2021-027BJ,2026-03-01T10:02:50.341344,15.30183570,.0001108,53.1615,203.8498,94.5524,265.5603,0,U,48148,999,27123,.19523E-4,.219E-5,0
STARLINK-2492,2021-027BK,2026-03-01T09:33:26.332416,15.06401299,.0001249,53.0547,188.8397,86.4205,273.6927,0,U,48149,999,27144,.53332E-3,.7672E-4,0
STARLINK-2493,2021-027BL,2026-03-01T09:38:44.316384,15.06406565,.0001429,53.0570,188.8255,94.3804,265.7349,0,U,48150,999,27145,.30058E-4,.166E-5,0
STARLINK-2503,2021-027BM,2026-03-01T09:44:03.107328,15.06400641,.0001165,53.0557,188.8079,85.7679,274.3443,0,U,48151,999,27145,.65603E-4,.696E-5,0
