STARLINK-2455           
1 48117U 21027AB  26060.49679023  .00002691  00000+0  19934-3 0  9993
2 48117  53.0547 188.3882 0001194  89.8509 270.2617 15.06420753271467
STARLINK-2459           
1 48119U 21027AD  26060.50415964  .00000378  00000+0  44235-4 0  9992
2 48119  53.0566 188.3548 0001521 101.5139 258.6021 15.06408624271455
STARLINK-2460           
1 48120U 21027AE  26060.38759347 -.00009372  00000+0 -30485-3 0  9992
2 48120  53.1607 206.3719 0001250  73.0355 287.0783 15.30183296271214
STARLINK-2462           
1 48121U 21027AF  26060.39859654  .00003553  00000+0  13201-3 0  9996
2 48121  53.1615 193.4406 0001039  95.2675 264.8444 15.30205809271389
STARLINK-2464           
1 48123U 21027AH  26060.49035727  .00001901  00000+0  14642-3 0  9991
2 48123  53.0563 188.4271 0001358  91.6129 268.5016 15.06408297271468
STARLINK-2465           
1 48124U 21027AJ  26060.40808781 -.00001185  00000+0 -27911-4 0  9991
2 48124  53.1593 193.4189 0001230  86.3674 273.7468 15.30188070271383
STARLINK-2466           
1 48125U 21027AK  26060.43124380  .00001551  00000+0  64496-4 0  9995
2 48125  53.1604 203.6495 0001357  96.8572 263.2583 15.30190531271246
STARLINK-2467           
1 48126U 21027AL  26060.39084354  .00002415  00000+0  18099-3 0  9994
2 48126  53.0559 188.8737 0001217  80.9840 279.1286 15.06393474271458
STARLINK-2468           
1 48127U 21027AM  26060.41229193  .00001804  00000+0  73008-4 0  9993
2 48127  53.1621 203.8508 0001230  69.0819 291.0314 15.30211472271249
STARLINK-2469           
1 48128U 21027AN  26060.50003471  .00059790  00000+0  32423-2 0  9994
2 48128  53.0832 138.3602 0001746  56.7846  33.5097 15.14024501  5828
STARLINK-2471           
1 48129U 21027AP  26060.42180645  .00000671  00000+0  34776-4 0  9994
2 48129  53.1601 203.9722 0001162  80.2313 279.8819 15.30194411271243
STARLINK-2472           
1 48130U 21027AQ  26060.43189633  .00012014  00000+0  41710-3 0  9992
2 48130  53.1583 206.5494 0001360  92.0784 268.0372 15.30200057271217
STARLINK-2473           
1 48131U 21027AR  26060.51616960  .00000872  00000+0  77425-4 0  9992
2 48131  53.0565 188.3115 0001449  83.4326 276.6828 15.06389464271469
STARLINK-2474           
1 48132U 21027AS  26060.43709720  .00014038  00000+0  48515-3 0  9997
2 48132  53.1591 206.1266 0001434  87.4839 272.6325 15.30202915271205
STARLINK-2475           
1 48133U 21027AT  26060.38279171  .00000529  00000+0  29999-4 0  9990
2 48133  53.1602 203.9103 0001053  75.5635 284.5482 15.30187468271248
STARLINK-2476           
1 48134U 21027AU  26060.42808098  .00000809  00000+0  39446-4 0  9991
2 48134  53.1613 203.6449 0001359  97.2337 262.8818 15.30192376271246
STARLINK-2478           
1 48135U 21027AV  26060.43167734  .00011911  00000+0  42443-3 0  9994
2 48135  53.1587 206.2221 0001521 102.2139 257.9032 15.29356433271216
STARLINK-2479           
1 48136U 21027AW  26060.40597991  .00009451  00000+0  33071-3 0  9997
2 48136  53.1599 203.9536 0001423  95.6193 264.4970 15.30209513271244
STARLINK-2480           
1 48137U 21027AX  26060.32818250  .00003591  00000+0  25987-3 0  9999
2 48137  53.0567 189.1262 0001518  95.0836 265.0326 15.06396562271430
STARLINK-2481           
1 48138U 21027AY  26060.42923183  .00000728  00000+0  37544-4 0  9995
2 48138  53.1554 206.1583 0001242  88.4885 271.6258 15.29356998271215
STARLINK-2482           
1 48139U 21027AZ  26060.34661321  .00002963  00000+0  21773-3 0  9999
2 48139  53.0549 189.0718 0001716  95.9035 264.2149 15.06399217271442
STARLINK-2483           
1 48140U 21027BA  26060.43340810  .00000081  00000+0  14869-4 0  9996
2 48140  53.1591 204.0032 0001193  83.4265 276.6872 15.30193078271247
STARLINK-2485           
1 48142U 21027BC  26060.34289549 -.00022458  00000+0 -14892-2 0  9997
2 48142  53.0559 189.0873 0002028  79.7067 280.4150 15.06506139271446
STARLINK-2486           
1 48143U 21027BD  26060.48426000  .00002825  00000+0  10748-3 0  9999
2 48143  53.1613 139.1498 0001448  89.6356 270.4810 15.30198433272156
STARLINK-2487           
1 48144U 21027BE  26060.35030078  .00002476  00000+0  18507-3 0  9995
2 48144  53.0569 189.0557 0001183  87.8329 272.2795 15.06401586271433
STARLINK-2488           
1 48145U 21027BF  26060.50003471  .00342139  00000+0  12316-2 0  9994
2 48145  53.0417 149.8031 0001637  49.7005  53.6591 15.87273129  5955
STARLINK-2491           
1 48148U 21027BJ  26060.41863821  .00000219  00000+0  19523-4 0  9999
2 48148  53.1615 203.8498 0001108  94.5524 265.5603 15.30183570271236
STARLINK-2492           
1 48149U 21027BK  26060.39822144  .00007672  00000+0  53332-3 0  9995
2 48149  53.0547 188.8397 0001249  86.4205 273.6927 15.06401299271448
STARLINK-2493           
1 48150U 21027BL  26060.40190181  .00000166  00000+0  30058-4 0  9990
2 48150  53.0570 188.8255 0001429  94.3804 265.7349 15.06406565271454
STARLINK-2503           
1 48151U 21027BM  26060.40559152  .00000696  00000+0  65603-4 0  9990
2 48151  53.0557 188.8079 0001165  85.7679 274.3443 15.06400641271455
